TELSTAR 12V             
1 41036U 15068A   15354.24600591 -.00000122  00000-0  00000+0 0  9994
2 41036   0.0564 216.0620 0002333  14.2597 291.7463  1.00270665   309
H-2A R/B                
1 41037U 15068B   15353.42252984 -.00000023  00000-0  00000-0 0  9994
2 41037  19.1316 200.4700 6445477 188.2351 151.2116  2.12568167   539
YAOGAN 29               
1 41038U 15069A   15355.13315258  .00000305  00000-0  46761-4 0  9990
2 41038  97.8426 336.8505 0001357 100.1388 259.9980 14.80236410  3599
CZ-4C R/B               
1 41039U 15069B   15354.01105258  .00002882  00000-0  18860-3 0  9994
2 41039  97.7875 336.4222 0097086 320.1637  39.2457 15.04795299  3482
LISA PATHFINDER         
1 41043U 15070A   15344.77031519  .00118629  00000-0  48222-3 0  9993
2 41043   5.9751 316.7854 0867733 165.2477 197.5189 14.15678921  1062
AVUM R/B                
1 41044U 15070B   15355.18536738  .00155555 -22711-4  59590-3 0  9991
2 41044   5.9722 248.3582 0855711 300.9304  50.9644 14.18554628  2541
COSMOS 2512             
1 41099U 15071B   15354.98532107 -.00000047  00000-0  00000+0 0  9991
2 41099  98.1735 359.2728 0006541 196.0573 164.0627 14.61282236  2240
SL-4 R/B                
1 41100U 15071C   15355.00718244  .00317794  24152-5  65194-3 0  9993
2 41100  98.1827   1.4626 0317744  20.0809 341.2654 15.47964192  2383
CYGNUS ORB-4            
1 41101U 15072A   15353.57439117  .00014117  00000-0  21367-3 0  9992
2 41101  51.6441 238.8813 0008350 299.4829 139.1404 15.54920935976885
CHINASAT 1C (ZX 1C)     
1 41103U 15073A   15344.30888763  .00000197 -46517-6  00000+0 0  9991
2 41103  27.0766 326.8713 7310560 179.7128 127.9168  2.28145762    18
CZ-3B R/B               
1 41104U 15073B   15353.61230097  .00003523 -52696-6  12080-4 0  9994
2 41104  27.0997 323.1426 7236742 185.2440 251.0602  2.39765299   235
SL-23 R/B               
1 41107U 15074C   15354.86222934  .01006472  11209-4  33675-3 0  9998
2 41107  51.3758 247.3756 0217985  94.6891 267.9060 15.88558017  1477
2015-074D               
1 41108U 15074D   15354.80071689  .00035347  27878-5  10758-2 0  9990
2 41108  50.3789 273.2363 2312728  22.6727 346.1608 10.79342674  1007
SL-23 DEB               
1 41109U 15074E   15354.75230329  .03198672  10786-4  93905-3 0  9992
2 41109  51.3626 250.1243 0302645  99.1276 264.3794 15.70148908  1392
SL-23 DEB               
1 41110U 15074F   15354.73981885  .02241167  10366-4  15625-2 0  9995
2 41110  51.3772 250.6630 0351143 106.7133 257.3334 15.51994747  1385
SL-23 DEB               
1 41111U 15074G   15354.56157402  .01648321  10267-4  11825-2 0  9997
2 41111  51.4018 252.3241 0374498 107.0920 257.0799 15.46434931  1350
SL-23 DEB               
1 41112U 15074H   15355.08947391  .03716933  10758-4  65083-3 0  9998
2 41112  51.4537 249.1448 0312748 103.5686 260.1468 15.69892905  1442
2015-074J               
1 41113U 15074J   15354.98390851  .00378697  13818-4  10390-1 0  9997
2 41113  50.4735 272.4529 2249721  22.7218 345.9394 10.93343123  1025
2015-074K               
1 41114U 15074K   15349.12289382 -.00001557  49112-5  00000+0 0  9995
2 41114  50.3384 285.9315 1637434  16.5219  67.8526 12.25096483   409
2015-074L               
1 41115U 15074L   15354.80577954  .03840454  13957-2  83016-1 0  9996
2 41115  50.1903 271.0047 1890873  24.0989 344.2918 11.71394027  1042
2015-075A               
1 41121U 15075A   15354.62419270 -.00000214  00000-0  00000+0 0  9993
2 41121  48.5896  92.9624 7215747   1.7315   7.7730  2.28196018   183
SOYUZ-TMA 19M           
1 41124U 15076A   15353.57439117  .00014117  00000-0  21367-3 0  9991
2 41124  51.6441 238.8813 0008350 299.4829 139.1404 15.54920935976880
2015-077A               
1 41166U 15077A   15354.74755920  .00003091  00000-0  15304-3 0  9994
2 41166  14.9820 179.0899 0012209  44.5022  48.7420 15.08170145   601
2015-077B               
1 41167U 15077B   15354.74780591  .00001005  00000-0  22304-4 0  9999
2 41167  14.9779 179.0873 0011907  41.3655  51.9531 15.08078795   605
2015-077C               
1 41168U 15077C   15354.74677442  .00005411  00000-0  29586-3 0  9993
2 41168  14.9882 179.0796 0013787  41.9320  51.2128 15.08453368   606
2015-077D               
1 41169U 15077D   15354.81724799  .00003651  00000-0  18982-3 0  9992
2 41169  14.9780 178.5868 0011252  40.5110  67.7582 15.07894509   617
2015-077E               
1 41170U 15077E   15354.74749343  .00005760  00000-0  31191-3 0  9998
2 41170  14.9853 179.0662 0014943  54.1911  51.9751 15.09054470   607
2015-077F               
1 41171U 15077F   15354.74927767  .00005154  00000-0  28728-3 0  9996
2 41171  14.9862 179.0990 0010425  35.6001  58.2359 15.07604455   603
PSLV R/B                
1 41172U 15077G   15354.81121064  .00007324  00000-0  18494-3 0  9991
2 41172  14.6889 177.0818 0126216 329.8593  29.4522 15.26404059   631
DAMPE                   
1 41173U 15078A   15355.07332506  .00000662  00000-0  30891-4 0  9991
2 41173  97.3019   7.3364 0012232 274.4203 162.0230 15.23198364   615
2015-079A               
1 41174U 15079A   15354.93748833  .00000079  00000-0  00000+0 0  9997
2 41174  54.9621 206.8221 0007163 146.4781 277.3456  1.67591292    56
2015-079B               
1 41175U 15079B   15354.95793841  .00000079  00000-0  00000+0 0  9999
2 41175  54.9598 206.8153 0010935 204.7340 228.9770  1.67386070    51
2015-079C               
1 41176U 15079C   15354.43386794  .00000078  00000-0  00000+0 0  9997
2 41176  54.9685 206.8322 0009820 195.0319 284.5643  1.67566993    46
